              M50 Cartesian                         M50 Keplerian  
    -----------------------------------       --------------------------------
     X    =        5608294.85                 A    =         6786174.24  meter
     Y    =       -2620687.84  meter          E    =           .0011434
     Z    =        2768361.64                 I    =           51.67261
     XDOT =       4292.919224                 Wp   =           98.37088
     YDOT =       3745.059268  meter/sec      RA   =          175.65707  deg
     ZDOT =      -5135.031469                 TA   =           50.27032
                                              MA   =           50.16961
                                              Ha   =            220.385  n.mi
                                              Hp   =            215.411
 
              M50 Cartesian                         J2K Cartesian  
    -----------------------------------       --------------------------------
     X    =       18399917.49                 X    =         5623735.70
     Y    =       -8598057.21  feet           Y    =        -2557885.49  meter
     Z    =        9082551.31                 Z    =         2795643.15
     XDOT =      14084.380655                 XDOT =        4275.665760
     YDOT =      12286.939857  feet/sec       YDOT =        3792.968455  meter/sec
     ZDOT =     -16847.216107                 ZDOT =       -5114.219901
 
              TDR Cartesian                         TDR Cartesian  
    -----------------------------------       --------------------------------
     X    =       -3050583.95                 X    =         -929817.99
     Y    =       20025106.64  feet           Y    =         6103652.50  meter
     Z    =        9201376.62                 Z    =         2804579.59
     XDOT =     -16641.828387                 XDOT =       -5072.429292
     YDOT =       5189.301218  feet/sec       YDOT =        1581.699011  meter/sec
     ZDOT =     -16757.457716                 ZDOT =       -5107.673112
  
  
    The mean element set is posted at the UTC for which position is
    just north of the next ascending node relative to the above
    vector time
 
 
    TWO LINE MEAN ELEMENT SET
  
    ISS
    1 25544U 98067A   16073.22074168  .00016717  00000-0  10270-3 0  9116
    2 25544  51.6419 176.6295 0002020 292.2597  67.8341 15.54067065 30050
  
  
    Satellite: ISS
    Catalog Number: 25544
    Epoch time:      16073.22074168   =   yrday.fracday
    Element set:     911
    Inclination:       51.6419  deg
    RA of node:       176.6295  deg
    Eccentricity:     .0002020     
    Arg of perigee:   292.2597  deg
    Mean anomaly:      67.8341  deg
    Mean motion:   15.54067065  rev/day
    Decay rate:    1.67170E-04  rev/day^2
    Epoch rev:            3005
    Checksum:              300
 
 
    Coasting Arc #13 (Orbit 3019)
    ---------------------------------------
 
    Vector Time (GMT): 2016/074/04:23:20.227
    Vector Time (MET): N/A
    Weight (LBS)     : 890089.8
 
              M50 Cartesian                         M50 Keplerian  
    -----------------------------------       --------------------------------
     X    =       -6360423.17                 A    =         6788916.34  meter
     Y    =        2019982.69  meter          E    =           .0008741
     Z    =       -1220960.15                 I    =           51.71176
     XDOT =      -2479.581346                 Wp   =           24.94118
     YDOT =      -4280.173512  meter/sec      RA   =          170.68513  deg
     ZDOT =       5858.838595                 TA   =          321.80360
                                              MA   =          321.86550
                                              Ha   =            220.444  n.mi
                                              Hp   =            215.486
 
              M50 Cartesian                         J2K Cartesian  
    -----------------------------------       --------------------------------
     X    =      -20867530.09                 X    =        -6376607.51
     Y    =        6627239.79  feet           Y    =         1948765.59  meter
     Z    =       -4005774.78                 Z    =        -1251896.98
     XDOT =      -8135.109404                 XDOT =       -2459.994783
     YDOT =     -14042.564016  feet/sec       YDOT =       -4307.791716  meter/sec
     ZDOT =      19221.911400                 ZDOT =        5846.841440
 
              TDR Cartesian                         TDR Cartesian  
    -----------------------------------       --------------------------------
     X    =        5716095.96                 X    =         1742266.05
     Y    =      -21109328.57  feet           Y    =        -6434123.35  meter
     Z    =       -4140391.92                 Z    =        -1261991.46
     XDOT =      14736.741291                 XDOT =        4491.758746
     YDOT =        244.712672  feet/sec       YDOT =          74.588422  meter/sec
     ZDOT =      19170.492876                 ZDOT =        5843.166229
  
  
    The mean element set is posted at the UTC for which position is
    just north of the next ascending node relative to the above
    vector time
 
 
    TWO LINE MEAN ELEMENT SET
  
    ISS
    1 25544U 98067A   16074.18532750  .00016717  00000-0  10270-3 0  9129
    2 25544  51.6404 171.8203 0002074 294.0998  65.9938 15.54037269 30205
  
  
    Satellite: ISS
    Catalog Number: 25544
    Epoch time:      16074.18532750   =   yrday.fracday
    Element set:     912
    Inclination:       51.6404  deg
    RA of node:       171.8203  deg
    Eccentricity:     .0002074     
    Arg of perigee:   294.0998  deg
    Mean anomaly:      65.9938  deg
    Mean motion:   15.54037269  rev/day
    Decay rate:    1.67170E-04  rev/day^2
    Epoch rev:            3020
    Checksum:              308
 
 
    Coasting Arc #14 (Orbit 3035)
    ---------------------------------------
 
    Vector Time (GMT): 2016/075/04:23:20.227
    Vector Time (MET): N/A
    Weight (LBS)     : 890089.8
 
              M50 Cartesian                         M50 Keplerian  
    -----------------------------------       --------------------------------
     X    =        6641991.79                 A    =         6789469.71  meter
     Y    =       -1297835.96  meter          E    =           .0009331
     Z    =        -482485.31                 I    =           51.74480
     XDOT =        497.884748                 Wp   =          142.92487
     YDOT =       4752.191084  meter/sec      RA   =          165.72129  deg
     ZDOT =      -5996.551087                 TA   =           42.27093
                                              MA   =           42.19904
                                              Ha   =            220.526  n.mi
                                              Hp   =            215.432
 
              M50 Cartesian                         J2K Cartesian  
    -----------------------------------       --------------------------------
     X    =       21791311.65                 X    =         6658354.57
     Y    =       -4257992.00  feet           Y    =        -1223469.35  meter
     Z    =       -1582957.05                 Z    =         -450180.43
     XDOT =       1633.480145                 XDOT =         473.836124
     YDOT =      15591.178096  feet/sec       YDOT =        4757.623737  meter/sec
     ZDOT =     -19673.724039                 ZDOT =       -5994.191352
 
              TDR Cartesian                         TDR Cartesian  
    -----------------------------------       --------------------------------
     X    =       -7870994.36                 X    =        -2399079.08
     Y    =       20771715.69  feet           Y    =         6331218.94  meter
     Z    =       -1442493.52                 Z    =         -439672.02
     XDOT =     -12661.444138                 XDOT =       -3859.208173
     YDOT =      -6146.456169  feet/sec       YDOT =       -1873.439840  meter/sec
     ZDOT =     -19664.218767                 ZDOT =       -5993.653880
  
  
    The mean element set is posted at the UTC for which position is
    just north of the next ascending node relative to the above
    vector time
 
 
    TWO LINE MEAN ELEMENT SET
  
    ISS
    1 25544U 98067A   16075.21420951  .00016717  00000-0  10270-3 0  9134
    2 25544  51.6401 166.6915 0002004 297.0627  63.0321 15.54051475 30366
  
  
    Satellite: ISS
    Catalog Number: 25544
    Epoch time:      16075.21420951   =   yrday.fracday
    Element set:     913
    Inclination:       51.6401  deg
    RA of node:       166.6915  deg
    Eccentricity:     .0002004     
    Arg of perigee:   297.0627  deg
    Mean anomaly:      63.0321  deg
    Mean motion:   15.54051475  rev/day
    Decay rate:    1.67170E-04  rev/day^2
    Epoch rev:            3036
    Checksum:              274
 
 
    Coasting Arc #15 (Orbit 3051)
    ---------------------------------------
 
    Vector Time (GMT): 2016/076/04:23:20.227
    Vector Time (MET): N/A
    Weight (LBS)     : 890089.8
 
              M50 Cartesian                         M50 Keplerian  
    -----------------------------------       --------------------------------
     X    =       -6424858.22                 A    =         6787602.78  meter
     Y    =         477988.11  meter          E    =           .0012688
     Z    =        2115135.45                 I    =           51.76886
     XDOT =       1445.709278                 Wp   =           62.70356
     YDOT =      -5117.564972  meter/sec      RA   =          160.75591  deg
     ZDOT =       5528.178182                 TA   =          320.69295
                                              MA   =          320.78499
                                              Ha   =            220.493  n.mi
                                              Hp   =            215.407
 
